[{"OBJECT_NAME":"GPS BIIF-7  (PRN 09)","OBJECT_ID":"2014-045A","EPOCH":"2026-03-03T08:24:10.221984","MEAN_MOTION":2.0055139,"ECCENTRICITY":0.00315291,"INCLINATION":55.2804,"RA_OF_ASC_NODE":92.6803,"ARG_OF_PERICENTER":120.5063,"MEAN_ANOMALY":239.8766,"EPHEMERIS_TYPE":0,"CLASSIFICATION_TYPE":"U","NORAD_CAT_ID":40105,"ELEMENT_SET_NO":999,"REV_AT_EPOCH":8395,"BSTAR":0,"MEAN_MOTION_DOT":1.6e-7,"MEAN_MOTION_DDOT":0},{"OBJECT_NAME":"GPS BIIF-8  (PRN 03)","OBJECT_ID":"2014-068A","EPOCH":"2026-03-03T05:28:47.864064","MEAN_MOTION":2.00569742,"ECCENTRICITY":0.00627475,"INCLINATION":56.9187,"RA_OF_ASC_NODE":35.0371,"ARG_OF_PERICENTER":68.0438,"MEAN_ANOMALY":292.6092,"EPHEMERIS_TYPE":0,"CLASSIFICATION_TYPE":"U","NORAD_CAT_ID":40294,"ELEMENT_SET_NO":999,"REV_AT_EPOCH":8308,"BSTAR":0,"MEAN_MOTION_DOT":-7.4e-7,"MEAN_MOTION_DDOT":0},{"OBJECT_NAME":"GPS BIIF-9  (PRN 26)","OBJECT_ID":"2015-013A","EPOCH":"2026-03-03T08:37:51.150720","MEAN_MOTION":2.00557636,"ECCENTRICITY":0.01087411,"INCLINATION":53.1865,"RA_OF_ASC_NODE":208.5527,"ARG_OF_PERICENTER":39.7842,"MEAN_ANOMALY":320.9512,"EPHEMERIS_TYPE":0,"CLASSIFICATION_TYPE":"U","NORAD_CAT_ID":40534,"ELEMENT_SET_NO":999,"REV_AT_EPOCH":7970,"BSTAR":0,"MEAN_MOTION_DOT":-1.3e-7,"MEAN_MOTION_DDOT":0},{"OBJECT_NAME":"GPS BIIF-10 (PRN 08)","OBJECT_ID":"2015-033A","EPOCH":"2026-03-03T12:29:03.695424","MEAN_MOTION":2.00561598,"ECCENTRICITY":0.01144742,"INCLINATION":54.0652,"RA_OF_ASC_NODE":271.4414,"ARG_OF_PERICENTER":28.962,"MEAN_ANOMALY":331.7017,"EPHEMERIS_TYPE":0,"CLASSIFICATION_TYPE":"U","NORAD_CAT_ID":40730,"ELEMENT_SET_NO":999,"REV_AT_EPOCH":7787,"BSTAR":0,"MEAN_MOTION_DOT":-8.0e-8,"MEAN_MOTION_DDOT":0},{"OBJECT_NAME":"GPS BIIF-11 (PRN 10)","OBJECT_ID":"2015-062A","EPOCH":"2026-03-03T01:55:49.502784","MEAN_MOTION":2.00567044,"ECCENTRICITY":0.01114592,"INCLINATION":56.892,"RA_OF_ASC_NODE":34.899,"ARG_OF_PERICENTER":231.4865,"MEAN_ANOMALY":127.4993,"EPHEMERIS_TYPE":0,"CLASSIFICATION_TYPE":"U","NORAD_CAT_ID":41019,"ELEMENT_SET_NO":999,"REV_AT_EPOCH":7570,"BSTAR":0,"MEAN_MOTION_DOT":-7.4e-7,"MEAN_MOTION_DDOT":0},{"OBJECT_NAME":"GPS BIIF-12 (PRN 32)","OBJECT_ID":"2016-007A","EPOCH":"2026-03-03T15:56:39.614496","MEAN_MOTION":2.00556778,"ECCENTRICITY":0.00954158,"INCLINATION":55.4551,"RA_OF_ASC_NODE":93.6421,"ARG_OF_PERICENTER":245.9853,"MEAN_ANOMALY":113.0821,"EPHEMERIS_TYPE":0,"CLASSIFICATION_TYPE":"U","NORAD_CAT_ID":41328,"ELEMENT_SET_NO":999,"REV_AT_EPOCH":7372,"BSTAR":0,"MEAN_MOTION_DOT":1.6e-7,"MEAN_MOTION_DDOT":0},{"OBJECT_NAME":"GPS BIII-1  (PRN 04)","OBJECT_ID":"2018-109A","EPOCH":"2026-03-03T13:16:28.837920","MEAN_MOTION":2.00556711,"ECCENTRICITY":0.0037895,"INCLINATION":55.6145,"RA_OF_ASC_NODE":96.3528,"ARG_OF_PERICENTER":198.2737,"MEAN_ANOMALY":333.998,"EPHEMERIS_TYPE":0,"CLASSIFICATION_TYPE":"U","NORAD_CAT_ID":43873,"ELEMENT_SET_NO":999,"REV_AT_EPOCH":5295,"BSTAR":0,"MEAN_MOTION_DOT":1.9e-7,"MEAN_MOTION_DDOT":0},{"OBJECT_NAME":"GPS BIII-2  (PRN 18)","OBJECT_ID":"2019-056A","EPOCH":"2026-03-03T04:35:28.842720","MEAN_MOTION":2.00568213,"ECCENTRICITY":0.0058023,"INCLINATION":55.6853,"RA_OF_ASC_NODE":335.3576,"ARG_OF_PERICENTER":198.177,"MEAN_ANOMALY":333.1087,"EPHEMERIS_TYPE":0,"CLASSIFICATION_TYPE":"U","NORAD_CAT_ID":44506,"ELEMENT_SET_NO":999,"REV_AT_EPOCH":4794,"BSTAR":0,"MEAN_MOTION_DOT":-9.8e-7,"MEAN_MOTION_DDOT":0},{"OBJECT_NAME":"GPS BIII-3  (PRN 23)","OBJECT_ID":"2020-041A","EPOCH":"2026-03-03T06:36:14.143680","MEAN_MOTION":2.00560606,"ECCENTRICITY":0.00613657,"INCLINATION":56.6052,"RA_OF_ASC_NODE":33.0526,"ARG_OF_PERICENTER":205.2583,"MEAN_ANOMALY":328.7601,"EPHEMERIS_TYPE":0,"CLASSIFICATION_TYPE":"U","NORAD_CAT_ID":45854,"ELEMENT_SET_NO":999,"REV_AT_EPOCH":4191,"BSTAR":0,"MEAN_MOTION_DOT":-7.8e-7,"MEAN_MOTION_DDOT":0},{"OBJECT_NAME":"GPS BIII-4  (PRN 14)","OBJECT_ID":"2020-078A","EPOCH":"2026-03-03T19:19:28.797888","MEAN_MOTION":2.00565522,"ECCENTRICITY":0.00681916,"INCLINATION":54.0018,"RA_OF_ASC_NODE":215.0499,"ARG_OF_PERICENTER":204.2889,"MEAN_ANOMALY":325.6484,"EPHEMERIS_TYPE":0,"CLASSIFICATION_TYPE":"U","NORAD_CAT_ID":46826,"ELEMENT_SET_NO":999,"REV_AT_EPOCH":3939,"BSTAR":0,"MEAN_MOTION_DOT":-7.0e-8,"MEAN_MOTION_DDOT":0},{"OBJECT_NAME":"GPS BIII-5  (PRN 11)","OBJECT_ID":"2021-054A","EPOCH":"2026-03-03T11:47:26.617920","MEAN_MOTION":2.0057558,"ECCENTRICITY":0.00238645,"INCLINATION":55.2215,"RA_OF_ASC_NODE":336.7106,"ARG_OF_PERICENTER":232.0768,"MEAN_ANOMALY":255.4185,"EPHEMERIS_TYPE":0,"CLASSIFICATION_TYPE":"U","NORAD_CAT_ID":48859,"ELEMENT_SET_NO":999,"REV_AT_EPOCH":3463,"BSTAR":0,"MEAN_MOTION_DOT":-1.0e-6,"MEAN_MOTION_DDOT":0},{"OBJECT_NAME":"GPS BIII-6  (PRN 28)","OBJECT_ID":"2023-009A","EPOCH":"2026-03-03T06:08:38.738688","MEAN_MOTION":2.00549255,"ECCENTRICITY":0.00046146,"INCLINATION":55.1094,"RA_OF_ASC_NODE":152.6829,"ARG_OF_PERICENTER":335.9551,"MEAN_ANOMALY":20.9517,"EPHEMERIS_TYPE":0,"CLASSIFICATION_TYPE":"U","NORAD_CAT_ID":55268,"ELEMENT_SET_NO":999,"REV_AT_EPOCH":2311,"BSTAR":0,"MEAN_MOTION_DOT":-2.0e-8,"MEAN_MOTION_DDOT":0},{"OBJECT_NAME":"GPS BIII-7  (PRN 01)","OBJECT_ID":"2024-242A","EPOCH":"2026-02-28T09:59:38.815872","MEAN_MOTION":2.00569355,"ECCENTRICITY":0.0015681,"INCLINATION":54.8934,"RA_OF_ASC_NODE":338.5934,"ARG_OF_PERICENTER":355.9356,"MEAN_ANOMALY":192.485,"EPHEMERIS_TYPE":0,"CLASSIFICATION_TYPE":"U","NORAD_CAT_ID":62339,"ELEMENT_SET_NO":999,"REV_AT_EPOCH":907,"BSTAR":0,"MEAN_MOTION_DOT":-1.0e-6,"MEAN_MOTION_DDOT":0},{"OBJECT_NAME":"GPS BIII-8  (PRN 21)","OBJECT_ID":"2025-116A","EPOCH":"2026-03-03T09:25:01.763328","MEAN_MOTION":2.00553198,"ECCENTRICITY":0.0008474,"INCLINATION":55.1633,"RA_OF_ASC_NODE":35.3874,"ARG_OF_PERICENTER":325.1064,"MEAN_ANOMALY":37.8908,"EPHEMERIS_TYPE":0,"CLASSIFICATION_TYPE":"U","NORAD_CAT_ID":64202,"ELEMENT_SET_NO":999,"REV_AT_EPOCH":575,"BSTAR":0,"MEAN_MOTION_DOT":-7.7e-7,"MEAN_MOTION_DDOT":0},{"OBJECT_NAME":"GPS BIII-9  (PRN 20)","OBJECT_ID":"2026-017A","EPOCH":"2026-03-03T00:01:39.143136","MEAN_MOTION":2.00560909,"ECCENTRICITY":0.00014881,"INCLINATION":55.0177,"RA_OF_ASC_NODE":93.0152,"ARG_OF_PERICENTER":18.7586,"MEAN_ANOMALY":341.3187,"EPHEMERIS_TYPE":0,"CLASSIFICATION_TYPE":"U","NORAD_CAT_ID":67588,"ELEMENT_SET_NO":999,"REV_AT_EPOCH":42948,"BSTAR":0,"MEAN_MOTION_DOT":1.7e-7,"MEAN_MOTION_DDOT":0}]
